ORBCOMM-X               
1 21576U 91050C   25137.17952163  .00000454  00000+0  14781-3 0  9994
2 21576  98.3446 204.4070 0002324 284.1639  75.9293 14.43239860777868
ORBCOMM FM01            
1 23545U 95017A   25137.18243834  .00006028  00000+0  63656-3 0  9996
2 23545  69.9614 151.4276 0004373 314.7805  45.2993 14.89731810608241
ORBCOMM FM02            
1 23546U 95017B   25137.54484758  .00007933  00000+0  81830-3 0  9999
2 23546  69.9633 170.0081 0005453 326.3394  33.7413 14.90526665607897
ORBCOMM FM08            
1 25112U 97084A   25136.11817509  .00001031  00000+0  32884-3 0  9990
2 25112  45.0126 161.7982 0003879  79.4433 280.6855 14.45715411436732
ORBCOMM FM10            
1 25113U 97084B   25137.13127022  .00001244  00000+0  39005-3 0  9996
2 25113  45.0136 159.2620 0003250  26.6172 333.4845 14.45508137437037
ORBCOMM FM11            
1 25114U 97084C   25137.47609576  .00001409  00000+0  43872-3 0  9993
2 25114  45.0122 158.1851 0003900  36.3311 323.7804 14.45263591437064
ORBCOMM FM12            
1 25115U 97084D   25137.16254303  .00001343  00000+0  41989-3 0  9998
2 25115  45.0130 159.4424 0003123  23.4814 336.6180 14.45282529437024
ORBCOMM FM09            
1 25116U 97084E   25136.50090969  .00000998  00000+0  32347-3 0  9995
2 25116  45.0134 163.5175 0004804  16.4406 343.6600 14.45157440436896
