<?xml version="1.0" encoding="UTF-8"?>
<ndm xmlns:xsi="http://www.w3.org/2001/XMLSchema-instance" xsi:noNamespaceSchemaLocation="https://sanaregistry.org/r/ndmxml_unqualified/ndmxml-2.0.0-master-2.0.xsd">
<omm id="CCSDS_OMM_VERS" version="2.0">
<header><CREATION_DATE/><ORIGINATOR/></header><body><segment><metadata><OBJECT_NAME>ORBCOMM-X</OBJECT_NAME><OBJECT_ID>1991-050C</OBJECT_ID><CENTER_NAME>EARTH</CENTER_NAME><REF_FRAME>TEME</REF_FRAME><TIME_SYSTEM>UTC</TIME_SYSTEM><MEAN_ELEMENT_THEORY>SGP4</MEAN_ELEMENT_THEORY></metadata><data><meanElements><EPOCH>2025-05-17T04:18:30.668832</EPOCH><MEAN_MOTION>14.43239860</MEAN_MOTION><ECCENTRICITY>.0002324</ECCENTRICITY><INCLINATION>98.3446</INCLINATION><RA_OF_ASC_NODE>204.4070</RA_OF_ASC_NODE><ARG_OF_PERICENTER>284.1639</ARG_OF_PERICENTER><MEAN_ANOMALY>75.9293</MEAN_ANOMALY></meanElements><tleParameters><EPHEMERIS_TYPE>0</EPHEMERIS_TYPE><CLASSIFICATION_TYPE>U</CLASSIFICATION_TYPE><NORAD_CAT_ID>21576</NORAD_CAT_ID><ELEMENT_SET_NO>999</ELEMENT_SET_NO><REV_AT_EPOCH>77786</REV_AT_EPOCH><BSTAR>.14781E-3</BSTAR><MEAN_MOTION_DOT>.454E-5</MEAN_MOTION_DOT><MEAN_MOTION_DDOT>0</MEAN_MOTION_DDOT></tleParameters></data></segment></body></omm>
<omm id="CCSDS_OMM_VERS" version="2.0">
<header><CREATION_DATE/><ORIGINATOR/></header><body><segment><metadata><OBJECT_NAME>ORBCOMM FM01</OBJECT_NAME><OBJECT_ID>1995-017A</OBJECT_ID><CENTER_NAME>EARTH</CENTER_NAME><REF_FRAME>TEME</REF_FRAME><TIME_SYSTEM>UTC</TIME_SYSTEM><MEAN_ELEMENT_THEORY>SGP4</MEAN_ELEMENT_THEORY></metadata><data><meanElements><EPOCH>2025-05-17T04:22:42.672576</EPOCH><MEAN_MOTION>14.89731810</MEAN_MOTION><ECCENTRICITY>.0004373</ECCENTRICITY><INCLINATION>69.9614</INCLINATION><RA_OF_ASC_NODE>151.4276</RA_OF_ASC_NODE><ARG_OF_PERICENTER>314.7805</ARG_OF_PERICENTER><MEAN_ANOMALY>45.2993</MEAN_ANOMALY></meanElements><tleParameters><EPHEMERIS_TYPE>0</EPHEMERIS_TYPE><CLASSIFICATION_TYPE>U</CLASSIFICATION_TYPE><NORAD_CAT_ID>23545</NORAD_CAT_ID><ELEMENT_SET_NO>999</ELEMENT_SET_NO><REV_AT_EPOCH>60824</REV_AT_EPOCH><BSTAR>.63656E-3</BSTAR><MEAN_MOTION_DOT>.6028E-4</MEAN_MOTION_DOT><MEAN_MOTION_DDOT>0</MEAN_MOTION_DDOT></tleParameters></data></segment></body></omm>
<omm id="CCSDS_OMM_VERS" version="2.0">
<header><CREATION_DATE/><ORIGINATOR/></header><body><segment><metadata><OBJECT_NAME>ORBCOMM FM02</OBJECT_NAME><OBJECT_ID>1995-017B</OBJECT_ID><CENTER_NAME>EARTH</CENTER_NAME><REF_FRAME>TEME</REF_FRAME><TIME_SYSTEM>UTC</TIME_SYSTEM><MEAN_ELEMENT_THEORY>SGP4</MEAN_ELEMENT_THEORY></metadata><data><meanElements><EPOCH>2025-05-17T13:04:34.830912</EPOCH><MEAN_MOTION>14.90526665</MEAN_MOTION><ECCENTRICITY>.0005453</ECCENTRICITY><INCLINATION>69.9633</INCLINATION><RA_OF_ASC_NODE>170.0081</RA_OF_ASC_NODE><ARG_OF_PERICENTER>326.3394</ARG_OF_PERICENTER><MEAN_ANOMALY>33.7413</MEAN_ANOMALY></meanElements><tleParameters><EPHEMERIS_TYPE>0</EPHEMERIS_TYPE><CLASSIFICATION_TYPE>U</CLASSIFICATION_TYPE><NORAD_CAT_ID>23546</NORAD_CAT_ID><ELEMENT_SET_NO>999</ELEMENT_SET_NO><REV_AT_EPOCH>60789</REV_AT_EPOCH><BSTAR>.8183E-3</BSTAR><MEAN_MOTION_DOT>.7933E-4</MEAN_MOTION_DOT><MEAN_MOTION_DDOT>0</MEAN_MOTION_DDOT></tleParameters></data></segment></body></omm>
<omm id="CCSDS_OMM_VERS" version="2.0">
<header><CREATION_DATE/><ORIGINATOR/></header><body><segment><metadata><OBJECT_NAME>ORBCOMM FM08</OBJECT_NAME><OBJECT_ID>1997-084A</OBJECT_ID><CENTER_NAME>EARTH</CENTER_NAME><REF_FRAME>TEME</REF_FRAME><TIME_SYSTEM>UTC</TIME_SYSTEM><MEAN_ELEMENT_THEORY>SGP4</MEAN_ELEMENT_THEORY></metadata><data><meanElements><EPOCH>2025-05-16T02:50:10.327776</EPOCH><MEAN_MOTION>14.45715411</MEAN_MOTION><ECCENTRICITY>.0003879</ECCENTRICITY><INCLINATION>45.0126</INCLINATION><RA_OF_ASC_NODE>161.7982</RA_OF_ASC_NODE><ARG_OF_PERICENTER>79.4433</ARG_OF_PERICENTER><MEAN_ANOMALY>280.6855</MEAN_ANOMALY></meanElements><tleParameters><EPHEMERIS_TYPE>0</EPHEMERIS_TYPE><CLASSIFICATION_TYPE>U</CLASSIFICATION_TYPE><NORAD_CAT_ID>25112</NORAD_CAT_ID><ELEMENT_SET_NO>999</ELEMENT_SET_NO><REV_AT_EPOCH>43673</REV_AT_EPOCH><BSTAR>.32884E-3</BSTAR><MEAN_MOTION_DOT>.1031E-4</MEAN_MOTION_DOT><MEAN_MOTION_DDOT>0</MEAN_MOTION_DDOT></tleParameters></data></segment></body></omm>
<omm id="CCSDS_OMM_VERS" version="2.0">
<header><CREATION_DATE/><ORIGINATOR/></header><body><segment><metadata><OBJECT_NAME>ORBCOMM FM10</OBJECT_NAME><OBJECT_ID>1997-084B</OBJECT_ID><CENTER_NAME>EARTH</CENTER_NAME><REF_FRAME>TEME</REF_FRAME><TIME_SYSTEM>UTC</TIME_SYSTEM><MEAN_ELEMENT_THEORY>SGP4</MEAN_ELEMENT_THEORY></metadata><data><meanElements><EPOCH>2025-05-17T03:09:01.747008</EPOCH><MEAN_MOTION>14.45508137</MEAN_MOTION><ECCENTRICITY>.000325</ECCENTRICITY><INCLINATION>45.0136</INCLINATION><RA_OF_ASC_NODE>159.2620</RA_OF_ASC_NODE><ARG_OF_PERICENTER>26.6172</ARG_OF_PERICENTER><MEAN_ANOMALY>333.4845</MEAN_ANOMALY></meanElements><tleParameters><EPHEMERIS_TYPE>0</EPHEMERIS_TYPE><CLASSIFICATION_TYPE>U</CLASSIFICATION_TYPE><NORAD_CAT_ID>25113</NORAD_CAT_ID><ELEMENT_SET_NO>999</ELEMENT_SET_NO><REV_AT_EPOCH>43703</REV_AT_EPOCH><BSTAR>.39005E-3</BSTAR><MEAN_MOTION_DOT>.1244E-4</MEAN_MOTION_DOT><MEAN_MOTION_DDOT>0</MEAN_MOTION_DDOT></tleParameters></data></segment></body></omm>
<omm id="CCSDS_OMM_VERS" version="2.0">
<header><CREATION_DATE/><ORIGINATOR/></header><body><segment><metadata><OBJECT_NAME>ORBCOMM FM11</OBJECT_NAME><OBJECT_ID>1997-084C</OBJECT_ID><CENTER_NAME>EARTH</CENTER_NAME><REF_FRAME>TEME</REF_FRAME><TIME_SYSTEM>UTC</TIME_SYSTEM><MEAN_ELEMENT_THEORY>SGP4</MEAN_ELEMENT_THEORY></metadata><data><meanElements><EPOCH>2025-05-17T11:25:34.673664</EPOCH><MEAN_MOTION>14.45263591</MEAN_MOTION><ECCENTRICITY>.00039</ECCENTRICITY><INCLINATION>45.0122</INCLINATION><RA_OF_ASC_NODE>158.1851</RA_OF_ASC_NODE><ARG_OF_PERICENTER>36.3311</ARG_OF_PERICENTER><MEAN_ANOMALY>323.7804</MEAN_ANOMALY></meanElements><tleParameters><EPHEMERIS_TYPE>0</EPHEMERIS_TYPE><CLASSIFICATION_TYPE>U</CLASSIFICATION_TYPE><NORAD_CAT_ID>25114</NORAD_CAT_ID><ELEMENT_SET_NO>999</ELEMENT_SET_NO><REV_AT_EPOCH>43706</REV_AT_EPOCH><BSTAR>.43872E-3</BSTAR><MEAN_MOTION_DOT>.1409E-4</MEAN_MOTION_DOT><MEAN_MOTION_DDOT>0</MEAN_MOTION_DDOT></tleParameters></data></segment></body></omm>
<omm id="CCSDS_OMM_VERS" version="2.0">
<header><CREATION_DATE/><ORIGINATOR/></header><body><segment><metadata><OBJECT_NAME>ORBCOMM FM12</OBJECT_NAME><OBJECT_ID>1997-084D</OBJECT_ID><CENTER_NAME>EARTH</CENTER_NAME><REF_FRAME>TEME</REF_FRAME><TIME_SYSTEM>UTC</TIME_SYSTEM><MEAN_ELEMENT_THEORY>SGP4</MEAN_ELEMENT_THEORY></metadata><data><meanElements><EPOCH>2025-05-17T03:54:03.717792</EPOCH><MEAN_MOTION>14.45282529</MEAN_MOTION><ECCENTRICITY>.0003123</ECCENTRICITY><INCLINATION>45.0130</INCLINATION><RA_OF_ASC_NODE>159.4424</RA_OF_ASC_NODE><ARG_OF_PERICENTER>23.4814</ARG_OF_PERICENTER><MEAN_ANOMALY>336.6180</MEAN_ANOMALY></meanElements><tleParameters><EPHEMERIS_TYPE>0</EPHEMERIS_TYPE><CLASSIFICATION_TYPE>U</CLASSIFICATION_TYPE><NORAD_CAT_ID>25115</NORAD_CAT_ID><ELEMENT_SET_NO>999</ELEMENT_SET_NO><REV_AT_EPOCH>43702</REV_AT_EPOCH><BSTAR>.41989E-3</BSTAR><MEAN_MOTION_DOT>.1343E-4</MEAN_MOTION_DOT><MEAN_MOTION_DDOT>0</MEAN_MOTION_DDOT></tleParameters></data></segment></body></omm>
<omm id="CCSDS_OMM_VERS" version="2.0">
<header><CREATION_DATE/><ORIGINATOR/></header><body><segment><metadata><OBJECT_NAME>ORBCOMM FM09</OBJECT_NAME><OBJECT_ID>1997-084E</OBJECT_ID><CENTER_NAME>EARTH</CENTER_NAME><REF_FRAME>TEME</REF_FRAME><TIME_SYSTEM>UTC</TIME_SYSTEM><MEAN_ELEMENT_THEORY>SGP4</MEAN_ELEMENT_THEORY></metadata><data><meanElements><EPOCH>2025-05-16T12:01:18.597216</EPOCH><MEAN_MOTION>14.45157440</MEAN_MOTION><ECCENTRICITY>.0004804</ECCENTRICITY><INCLINATION>45.0134</INCLINATION><RA_OF_ASC_NODE>163.5175</RA_OF_ASC_NODE><ARG_OF_PERICENTER>16.4406</ARG_OF_PERICENTER><MEAN_ANOMALY>343.6600</MEAN_ANOMALY></meanElements><tleParameters><EPHEMERIS_TYPE>0</EPHEMERIS_TYPE><CLASSIFICATION_TYPE>U</CLASSIFICATION_TYPE><NORAD_CAT_ID>25116</NORAD_CAT_ID><ELEMENT_SET_NO>999</ELEMENT_SET_NO><REV_AT_EPOCH>43689</REV_AT_EPOCH><BSTAR>.32347E-3</BSTAR><MEAN_MOTION_DOT>.998E-5</MEAN_MOTION_DOT><MEAN_MOTION_DDOT>0</MEAN_MOTION_DDOT></tleParameters></data></segment></body></omm>

</ndm>
